NORAD_CAT_ID,OBJECT_NAME,OBJECT_TYPE,EPOCH,MEAN_MOTION,ECCENTRICITY,INCLINATION,RA_OF_ASC_NODE,ARG_OF_PERICENTER,MEAN_ANOMALY,BSTAR,MEAN_MOTION_DOT,MEAN_MOTION_DDOT,TLE_LINE0,TLE_LINE1,TLE_LINE2,SEMIMAJOR_AXIS,PERIOD,APOGEE,PERIGEE,DECAYED
52633.0,STARLINK-3994,PAYLOAD,2023-10-15 14:32:40,15.0883004,0.0001603,53.2154,242.0132,87.1112,273.0063,0.00032601,4.903e-05,0.0,0 STARLINK-3994,1 52633U 22052AM  23288.60602898  .00004903  00000-0  32601-3 0  9993,2 52633  53.2154 242.0132 0001603  87.1112 273.0063 15.08830040 78741,6917.911,95.438,540.885,538.667,0.0
52633.0,STARLINK-3994,PAYLOAD,2023-10-16 03:15:46,15.08846611,0.0001605,53.2154,239.6339,85.0939,275.0236,0.0009484,0.00014841,0.0,0 STARLINK-3994,1 52633U 22052AM  23289.13594997  .00014841  00000-0  94840-3 0  9997,2 52633  53.2154 239.6339 0001605  85.0939 275.0236 15.08846611 79193,6917.86,95.437,540.835,538.615,0.0
52633.0,STARLINK-3994,PAYLOAD,2023-10-17 06:17:18,15.08859425,0.0001759,53.2161,234.5795,76.2856,283.8331,0.00056296,8.688e-05,0.0,0 STARLINK-3994,1 52633U 22052AM  23290.26202287  .00008688  00000-0  56296-3 0  9996,2 52633  53.2161 234.5795 0001759  76.2856 283.8331 15.08859425 79360,6917.821,95.436,540.903,538.469,0.0
52633.0,STARLINK-3994,PAYLOAD,2023-10-17 20:35:47,15.08857135,0.0003729,53.216,231.8986,90.4514,269.6905,0.00035271,5.332e-05,0.0,0 STARLINK-3994,1 52633U 22052AM  23290.85818510  .00005332  00000-0  35271-3 0  9996,2 52633  53.2160 231.8986 0003729  90.4514 269.6905 15.08857135 79454,6917.828,95.436,542.273,537.113,0.0
52633.0,STARLINK-3994,PAYLOAD,2023-10-18 02:57:19,15.08852948,0.000132,53.2165,230.7106,83.0339,277.0804,0.00016669,2.367e-05,0.0,0 STARLINK-3994,1 52633U 22052AM  23291.12314125  .00002367  00000-0  16669-3 0  9995,2 52633  53.2165 230.7106 0001320  83.0339 277.0804 15.08852948 79121,6917.841,95.437,540.619,538.793,0.0
52633.0,STARLINK-3994,PAYLOAD,2023-10-18 12:29:38,15.08842564,0.00013,53.2156,228.9282,99.8085,260.3054,0.00012291,1.669e-05,0.0,0 STARLINK-3994,1 52633U 22052AM  23291.52058184  .00001669  00000-0  12291-3 0  9990,2 52633  53.2156 228.9282 0001300  99.8085 260.3054 15.08842564 79558,6917.873,95.437,540.637,538.838,0.0
52633.0,STARLINK-3994,PAYLOAD,2023-10-19 02:48:06,15.08846395,0.0001119,53.2152,226.2524,92.4902,267.6219,0.00032382,4.87e-05,0.0,0 STARLINK-3994,1 52633U 22052AM  23292.11674151  .00004870  00000-0  32382-3 0  9994,2 52633  53.2152 226.2524 0001119  92.4902 267.6219 15.08846395 79277,6917.861,95.437,540.5,538.952,0.0
52633.0,STARLINK-3994,PAYLOAD,2023-10-19 17:06:34,15.08845099,0.0001595,53.2162,223.5789,102.6865,257.4306,0.00019193,2.768e-05,0.0,0 STARLINK-3994,1 52633U 22052AM  23292.71290118  .00002768  00000-0  19193-3 0  9996,2 52633  53.2162 223.5789 0001595 102.6865 257.4306 15.08845099 79736,6917.865,95.437,540.833,538.626,0.0
52633.0,STARLINK-3994,PAYLOAD,2023-10-20 04:14:16,15.0885007,0.0001253,53.2159,221.4944,90.2816,269.8319,0.00022596,3.311e-05,0.0,0 STARLINK-3994,1 52633U 22052AM  23293.17657824  .00003311  00000-0  22596-3 0  9994,2 52633  53.2159 221.4944 0001253  90.2816 269.8319 15.08850070 79434,6917.85,95.437,540.581,538.848,0.0
52633.0,STARLINK-3994,PAYLOAD,2023-10-20 18:32:45,15.08829903,0.0001579,53.2158,218.8183,96.3367,263.7805,-5.0764e-05,-1.096e-05,0.0,0 STARLINK-3994,1 52633U 22052AM  23293.77274936 -.00001096  00000-0 -50764-4 0  9998,2 52633  53.2158 218.8183 0001579  96.3367 263.7805 15.08829903 79891,6917.911,95.438,540.869,538.684,0.0
52633.0,STARLINK-3994,PAYLOAD,2023-10-21 12:01:59,15.08841733,0.0001396,53.2155,215.5481,96.2018,263.9133,0.00020503,2.977e-05,0.0,0 STARLINK-3994,1 52633U 22052AM  23294.50138878  .00002977  00000-0  20503-3 0  9998,2 52633  53.2155 215.5481 0001396  96.2018 263.9133 15.08841733 79635,6917.875,95.437,540.706,538.774,0.0
52633.0,STARLINK-3994,PAYLOAD,2023-10-21 18:23:32,15.08845391,0.0001096,53.2153,214.3577,99.5501,260.5615,0.00034021,5.132e-05,0.0,0 STARLINK-3994,1 52633U 22052AM  23294.76634682  .00005132  00000-0  34021-3 0  9996,2 52633  53.2153 214.3577 0001096  99.5501 260.5615 15.08845391 80045,6917.864,95.437,540.487,538.971,0.0
52633.0,STARLINK-3994,PAYLOAD,2023-10-22 02:20:27,15.08870922,0.0001564,53.2157,212.8712,83.1908,276.9262,0.00071438,0.00011109,0.0,0 STARLINK-3994,1 52633U 22052AM  23295.09753538  .00011109  00000-0  71438-3 0  9999,2 52633  53.2157 212.8712 0001564  83.1908 276.9262 15.08870922 80095,6917.786,95.436,540.733,538.569,0.0
52633.0,STARLINK-3994,PAYLOAD,2023-10-22 11:52:46,15.08839643,0.0002037,53.2161,211.0882,72.2819,287.8395,5.6645e-05,6.13e-06,0.0,0 STARLINK-3994,1 52633U 22052AM  23295.49498719  .00000613  00000-0  56645-4 0  9992,2 52633  53.2161 211.0882 0002037  72.2819 287.8395 15.08839643 79782,6917.881,95.438,541.156,538.337,0.0
52633.0,STARLINK-3994,PAYLOAD,2023-10-23 00:35:53,15.08815687,0.0001443,53.2155,208.7078,71.7154,288.3995,-0.00036774,-6.132e-05,0.0,0 STARLINK-3994,1 52633U 22052AM  23296.02491955 -.00006132  00000-0 -36774-3 0  9991,2 52633  53.2155 208.7078 0001443  71.7154 288.3995 15.08815687 80237,6917.955,95.439,540.818,538.821,0.0
52633.0,STARLINK-3994,PAYLOAD,2023-10-23 21:15:53,15.08842118,0.000176,53.2157,204.844,72.8048,287.3137,0.0002001,2.898e-05,0.0,0 STARLINK-3994,1 52633U 22052AM  23296.88603690  .00002898  00000-0  20010-3 0  9995,2 52633  53.2157 204.8440 0001760  72.8048 287.3137 15.08842118 79992,6917.874,95.437,540.956,538.521,0.0
52633.0,STARLINK-3994,PAYLOAD,2023-10-24 03:37:26,15.08861954,0.0001699,53.2157,203.6528,73.3234,286.7944,0.0015844,0.00025033,0.0,0 STARLINK-3994,1 52633U 22052AM  23297.15099964  .00025033  00000-0  15844-2 0  9993,2 52633  53.2157 203.6528 0001699  73.3234 286.7944 15.08861954 80406,6917.813,95.436,540.854,538.503,0.0
52633.0,STARLINK-3994,PAYLOAD,2023-10-25 03:28:12,15.08869097,0.0001728,53.2169,199.1925,77.055,283.0635,0.00088547,0.00013844,0.0,0 STARLINK-3994,1 52633U 22052AM  23298.14459037  .00013844  00000-0  88547-3 0  9992,2 52633  53.2169 199.1925 0001728  77.0550 283.0635 15.08869097 80553,6917.791,95.436,540.852,538.461,0.0
52633.0,STARLINK-3994,PAYLOAD,2023-10-25 22:32:50,15.0885319,0.0001605,53.2163,195.624,84.9506,275.167,0.0008061,0.00012569,0.0,0 STARLINK-3994,1 52633U 22052AM  23298.93947075  .00012569  00000-0  80610-3 0  9999,2 52633  53.2163 195.6240 0001605  84.9506 275.1670 15.08853190 80301,6917.84,95.437,540.815,538.595,0.0
52633.0,STARLINK-3994,PAYLOAD,2023-10-26 03:18:59,15.08855273,0.0001601,53.2163,194.733,75.8414,284.2756,0.00095063,0.0001488,0.0,0 STARLINK-3994,1 52633U 22052AM  23299.13819068  .00014880  00000-0  95063-3 0  9998,2 52633  53.2163 194.7330 0001601  75.8414 284.2756 15.08855273 80708,6917.834,95.437,540.806,538.591,0.0
52633.0,STARLINK-3994,PAYLOAD,2023-10-26 20:48:14,15.08847008,0.0001828,53.216,191.4581,107.0968,253.0224,0.00044297,6.77e-05,0.0,0 STARLINK-3994,1 52633U 22052AM  23299.86682970  .00006770  00000-0  44297-3 0  9990,2 52633  53.2160 191.4581 0001828 107.0968 253.0224 15.08847008 80442,6917.859,95.437,540.989,538.459,0.0
52633.0,STARLINK-3994,PAYLOAD,2023-10-27 03:09:46,15.08859633,0.0001514,53.2152,190.2721,87.4589,272.6576,0.00036971,5.604e-05,0.0,0 STARLINK-3994,1 52633U 22052AM  23300.13178298  .00005604  00000-0  36971-3 0  9991,2 52633  53.2152 190.2721 0001514  87.4589 272.6576 15.08859633 80857,6917.82,95.436,540.733,538.638,0.0
52633.0,STARLINK-3994,PAYLOAD,2023-10-27 09:31:19,15.08846291,0.0001471,53.2161,189.081,95.8076,264.3084,0.00034139,5.15e-05,0.0,0 STARLINK-3994,1 52633U 22052AM  23300.39674988  .00005150  00000-0  34139-3 0  9996,2 52633  53.2161 189.0810 0001471  95.8076 264.3084 15.08846291 80890,6917.861,95.437,540.744,538.709,0.0
52633.0,STARLINK-3994,PAYLOAD,2023-10-27 20:39:01,15.08839158,0.0001956,53.2154,186.9977,83.8249,276.2966,5.3573e-05,5.65e-06,0.0,0 STARLINK-3994,1 52633U 22052AM  23300.86043185  .00000565  00000-0  53573-4 0  9996,2 52633  53.2154 186.9977 0001956  83.8249 276.2966 15.08839158 80962,6917.883,95.438,541.101,538.395,0.0
52633.0,STARLINK-3994,PAYLOAD,2023-10-27 22:14:24,15.08834923,0.0001749,53.2161,186.7007,89.3993,270.72,-2.4783e-05,-6.82e-06,0.0,0 STARLINK-3994,1 52633U 22052AM  23300.92667377 -.00000682  00000-0 -24783-4 0  9991,2 52633  53.2161 186.7007 0001749  89.3993 270.7200 15.08834923 80605,6917.896,95.438,540.971,538.551,0.0
52633.0,STARLINK-3994,PAYLOAD,2023-10-28 09:22:06,15.08838003,0.0001275,53.2144,184.6211,97.8001,262.3136,4.1177e-05,3.67e-06,0.0,0 STARLINK-3994,1 52633U 22052AM  23301.39035160  .00000367  00000-0  41177-4 0  9996,2 52633  53.2144 184.6211 0001275  97.8001 262.3136 15.08838003 80673,6917.886,95.438,540.634,538.869,0.0
52633.0,STARLINK-3994,PAYLOAD,2023-10-28 20:29:48,15.08834692,0.0002073,53.2152,182.5406,88.801,271.322,-5.4719e-05,-1.159e-05,0.0,0 STARLINK-3994,1 52633U 22052AM  23301.85403828 -.00001159  00000-0 -54719-4 0  9995,2 52633  53.2152 182.5406 0002073  88.8010 271.3220 15.08834692 81116,6917.897,95.438,541.196,538.328,0.0
52633.0,STARLINK-3994,PAYLOAD,2023-10-28 22:05:12,15.08831823,0.0001757,53.2165,182.2441,92.7507,267.3686,-0.00010851,-2.014e-05,0.0,0 STARLINK-3994,1 52633U 22052AM  23301.92027889 -.00002014  00000-0 -10851-3 0  9991,2 52633  53.2165 182.2441 0001757  92.7507 267.3686 15.08831823 80752,6917.905,95.438,540.986,538.555,0.0
52633.0,STARLINK-3994,PAYLOAD,2023-10-29 09:12:53,15.08842302,0.0001588,53.2157,180.1624,94.0354,266.0819,0.00019788,2.863e-05,0.0,0 STARLINK-3994,1 52633U 22052AM  23302.38395679  .00002863  00000-0  19788-3 0  9995,2 52633  53.2157 180.1624 0001588  94.0354 266.0819 15.08842302 80826,6917.873,95.437,540.837,538.64,0.0
52633.0,STARLINK-3994,PAYLOAD,2023-10-29 21:55:58,15.08853085,0.0001373,53.2142,177.784,97.0103,263.1046,0.00045041,6.89e-05,0.0,0 STARLINK-3994,1 52633U 22052AM  23302.91387254  .00006890  00000-0  45041-3 0  9999,2 52633  53.2142 177.7840 0001373  97.0103 263.1046 15.08853085 80908,6917.84,95.437,540.655,538.756,0.0
